[{"OBJECT_NAME":"STARLINK-11270 [DTC]","OBJECT_ID":"2024-158K","EPOCH":"2025-10-08T06:21:57.576672","MEAN_MOTION":15.69714366,"ECCENTRICITY":8.111e-5,"INCLINATION":53.158,"RA_OF_ASC_NODE":312.734,"ARG_OF_PERICENTER":92.0584,"MEAN_ANOMALY":268.0527,"EPHEMERIS_TYPE":0,"CLASSIFICATION_TYPE":"U","NORAD_CAT_ID":60999,"ELEMENT_SET_NO":999,"REV_AT_EPOCH":6364,"BSTAR":1.1068831e-5,"MEAN_MOTION_DOT":7.53e-6,"MEAN_MOTION_DDOT":0},{"OBJECT_NAME":"STARLINK-11290 [DTC]","OBJECT_ID":"2024-158L","EPOCH":"2025-10-08T06:14:53.827008","MEAN_MOTION":15.69720783,"ECCENTRICITY":0.00013597,"INCLINATION":53.1574,"RA_OF_ASC_NODE":312.7014,"ARG_OF_PERICENTER":97.0864,"MEAN_ANOMALY":263.0308,"EPHEMERIS_TYPE":0,"CLASSIFICATION_TYPE":"U","NORAD_CAT_ID":61000,"ELEMENT_SET_NO":999,"REV_AT_EPOCH":6371,"BSTAR":1.7233154e-5,"MEAN_MOTION_DOT":1.5e-5,"MEAN_MOTION_DDOT":0},{"OBJECT_NAME":"STARLINK-11274 [DTC]","OBJECT_ID":"2024-158M","EPOCH":"2025-10-08T06:00:46.071936","MEAN_MOTION":15.69720708,"ECCENTRICITY":0.00014402,"INCLINATION":53.1593,"RA_OF_ASC_NODE":312.6368,"ARG_OF_PERICENTER":59.6871,"MEAN_ANOMALY":300.4289,"EPHEMERIS_TYPE":0,"CLASSIFICATION_TYPE":"U","NORAD_CAT_ID":61001,"ELEMENT_SET_NO":999,"REV_AT_EPOCH":6364,"BSTAR":1.701914e-5,"MEAN_MOTION_DOT":1.474e-5,"MEAN_MOTION_DDOT":0},{"OBJECT_NAME":"STARLINK-11288 [DTC]","OBJECT_ID":"2024-158N","EPOCH":"2025-10-08T05:53:42.654912","MEAN_MOTION":15.69719406,"ECCENTRICITY":0.00016256,"INCLINATION":53.158,"RA_OF_ASC_NODE":312.6048,"ARG_OF_PERICENTER":51.0324,"MEAN_ANOMALY":309.0838,"EPHEMERIS_TYPE":0,"CLASSIFICATION_TYPE":"U","NORAD_CAT_ID":61002,"ELEMENT_SET_NO":999,"REV_AT_EPOCH":6364,"BSTAR":3.697194e-6,"MEAN_MOTION_DOT":-1.41e-6,"MEAN_MOTION_DDOT":0},{"OBJECT_NAME":"STARLINK-32279","OBJECT_ID":"2024-158P","EPOCH":"2025-10-08T01:39:31.677696","MEAN_MOTION":15.30198887,"ECCENTRICITY":0.00012719,"INCLINATION":53.1584,"RA_OF_ASC_NODE":54.4883,"ARG_OF_PERICENTER":79.4665,"MEAN_ANOMALY":280.6479,"EPHEMERIS_TYPE":0,"CLASSIFICATION_TYPE":"U","NORAD_CAT_ID":61003,"ELEMENT_SET_NO":999,"REV_AT_EPOCH":6228,"BSTAR":2.3049562e-5,"MEAN_MOTION_DOT":3.23e-6,"MEAN_MOTION_DDOT":0},{"OBJECT_NAME":"STARLINK-32336","OBJECT_ID":"2024-158Q","EPOCH":"2025-10-07T19:17:14.089920","MEAN_MOTION":15.3019655,"ECCENTRICITY":0.00014313,"INCLINATION":53.1646,"RA_OF_ASC_NODE":55.6766,"ARG_OF_PERICENTER":76.6934,"MEAN_ANOMALY":283.4226,"EPHEMERIS_TYPE":0,"CLASSIFICATION_TYPE":"U","NORAD_CAT_ID":61004,"ELEMENT_SET_NO":999,"REV_AT_EPOCH":6224,"BSTAR":5.1522579e-5,"MEAN_MOTION_DOT":1.167e-5,"MEAN_MOTION_DDOT":0},{"OBJECT_NAME":"STARLINK-32284","OBJECT_ID":"2024-158R","EPOCH":"2025-10-08T01:44:04.832160","MEAN_MOTION":15.30189311,"ECCENTRICITY":9.601e-5,"INCLINATION":53.1612,"RA_OF_ASC_NODE":54.5137,"ARG_OF_PERICENTER":66.1671,"MEAN_ANOMALY":293.943,"EPHEMERIS_TYPE":0,"CLASSIFICATION_TYPE":"U","NORAD_CAT_ID":61005,"ELEMENT_SET_NO":999,"REV_AT_EPOCH":6221,"BSTAR":0.00017322806,"MEAN_MOTION_DOT":4.773e-5,"MEAN_MOTION_DDOT":0},{"OBJECT_NAME":"STARLINK-32282","OBJECT_ID":"2024-158S","EPOCH":"2025-10-07T17:29:30.426432","MEAN_MOTION":15.30212222,"ECCENTRICITY":9.0e-5,"INCLINATION":53.1611,"RA_OF_ASC_NODE":55.9187,"ARG_OF_PERICENTER":80.5435,"MEAN_ANOMALY":279.5668,"EPHEMERIS_TYPE":0,"CLASSIFICATION_TYPE":"U","NORAD_CAT_ID":61006,"ELEMENT_SET_NO":999,"REV_AT_EPOCH":6223,"BSTAR":0.00068486721,"MEAN_MOTION_DOT":0.00019987,"MEAN_MOTION_DDOT":0},{"OBJECT_NAME":"STARLINK-32360","OBJECT_ID":"2024-158T","EPOCH":"2025-10-08T06:13:57.461376","MEAN_MOTION":15.30204296,"ECCENTRICITY":0.00013599,"INCLINATION":53.1608,"RA_OF_ASC_NODE":38.2515,"ARG_OF_PERICENTER":84.422,"MEAN_ANOMALY":275.6936,"EPHEMERIS_TYPE":0,"CLASSIFICATION_TYPE":"U","NORAD_CAT_ID":61007,"ELEMENT_SET_NO":999,"REV_AT_EPOCH":6245,"BSTAR":-6.713147e-6,"MEAN_MOTION_DOT":-5.58e-6,"MEAN_MOTION_DDOT":0},{"OBJECT_NAME":"STARLINK-32340","OBJECT_ID":"2024-158U","EPOCH":"2025-10-07T08:44:40.808544","MEAN_MOTION":15.30193275,"ECCENTRICITY":0.00011338,"INCLINATION":53.1623,"RA_OF_ASC_NODE":57.8386,"ARG_OF_PERICENTER":98.3207,"MEAN_ANOMALY":261.7922,"EPHEMERIS_TYPE":0,"CLASSIFICATION_TYPE":"U","NORAD_CAT_ID":61008,"ELEMENT_SET_NO":999,"REV_AT_EPOCH":6210,"BSTAR":1.7447729e-5,"MEAN_MOTION_DOT":1.58e-6,"MEAN_MOTION_DDOT":0},{"OBJECT_NAME":"STARLINK-32357","OBJECT_ID":"2024-158V","EPOCH":"2025-10-07T14:33:31.392576","MEAN_MOTION":15.54870722,"ECCENTRICITY":0.0017498,"INCLINATION":53.1503,"RA_OF_ASC_NODE":10.5877,"ARG_OF_PERICENTER":342.0721,"MEAN_ANOMALY":17.9671,"EPHEMERIS_TYPE":0,"CLASSIFICATION_TYPE":"U","NORAD_CAT_ID":61009,"ELEMENT_SET_NO":999,"REV_AT_EPOCH":6278,"BSTAR":0.0022559,"MEAN_MOTION_DOT":0.00156757,"MEAN_MOTION_DDOT":0},{"OBJECT_NAME":"STARLINK-32347","OBJECT_ID":"2024-158W","EPOCH":"2025-10-07T19:08:06.936000","MEAN_MOTION":15.30201902,"ECCENTRICITY":0.0001207,"INCLINATION":53.1628,"RA_OF_ASC_NODE":55.6335,"ARG_OF_PERICENTER":87.862,"MEAN_ANOMALY":272.2519,"EPHEMERIS_TYPE":0,"CLASSIFICATION_TYPE":"U","NORAD_CAT_ID":61010,"ELEMENT_SET_NO":999,"REV_AT_EPOCH":6217,"BSTAR":6.7765148e-5,"MEAN_MOTION_DOT":1.648e-5,"MEAN_MOTION_DDOT":0},{"OBJECT_NAME":"STARLINK-11286 [DTC]","OBJECT_ID":"2024-164A","EPOCH":"2025-10-08T04:04:25.647456","MEAN_MOTION":15.697213,"ECCENTRICITY":7.481e-5,"INCLINATION":53.1571,"RA_OF_ASC_NODE":343.1582,"ARG_OF_PERICENTER":91.4517,"MEAN_ANOMALY":268.6587,"EPHEMERIS_TYPE":0,"CLASSIFICATION_TYPE":"U","NORAD_CAT_ID":61050,"ELEMENT_SET_NO":999,"REV_AT_EPOCH":6146,"BSTAR":1.5337959e-5,"MEAN_MOTION_DOT":1.271e-5,"MEAN_MOTION_DDOT":0},{"OBJECT_NAME":"STARLINK-11252 [DTC]","OBJECT_ID":"2024-164B","EPOCH":"2025-10-07T21:50:37.653792","MEAN_MOTION":15.69721753,"ECCENTRICITY":8.39e-5,"INCLINATION":53.1565,"RA_OF_ASC_NODE":344.3823,"ARG_OF_PERICENTER":89.7579,"MEAN_ANOMALY":270.3535,"EPHEMERIS_TYPE":0,"CLASSIFICATION_TYPE":"U","NORAD_CAT_ID":61051,"ELEMENT_SET_NO":999,"REV_AT_EPOCH":6142,"BSTAR":2.6539e-5,"MEAN_MOTION_DOT":2.629e-5,"MEAN_MOTION_DDOT":0},{"OBJECT_NAME":"STARLINK-11284 [DTC]","OBJECT_ID":"2024-164C","EPOCH":"2025-10-08T04:39:14.943744","MEAN_MOTION":16.10117916,"ECCENTRICITY":0.00086885,"INCLINATION":53.1401,"RA_OF_ASC_NODE":341.8373,"ARG_OF_PERICENTER":15.2205,"MEAN_ANOMALY":344.9089,"EPHEMERIS_TYPE":0,"CLASSIFICATION_TYPE":"U","NORAD_CAT_ID":61052,"ELEMENT_SET_NO":999,"REV_AT_EPOCH":6148,"BSTAR":0.0086369374,"MEAN_MOTION_DOT":0.05467308,"MEAN_MOTION_DDOT":0.098678389},{"OBJECT_NAME":"STARLINK-11230 [DTC]","OBJECT_ID":"2024-164D","EPOCH":"2025-10-07T21:36:30.064608","MEAN_MOTION":15.69716137,"ECCENTRICITY":0.0001001,"INCLINATION":53.1574,"RA_OF_ASC_NODE":344.316,"ARG_OF_PERICENTER":101.4168,"MEAN_ANOMALY":258.6963,"EPHEMERIS_TYPE":0,"CLASSIFICATION_TYPE":"U","NORAD_CAT_ID":61053,"ELEMENT_SET_NO":999,"REV_AT_EPOCH":6142,"BSTAR":1.8107e-5,"MEAN_MOTION_DOT":1.606e-5,"MEAN_MOTION_DDOT":0},{"OBJECT_NAME":"STARLINK-11294 [DTC]","OBJECT_ID":"2024-164E","EPOCH":"2025-10-07T21:29:26.107584","MEAN_MOTION":15.69719736,"ECCENTRICITY":0.0001113,"INCLINATION":53.1582,"RA_OF_ASC_NODE":344.2832,"ARG_OF_PERICENTER":80.4175,"MEAN_ANOMALY":279.6969,"EPHEMERIS_TYPE":0,"CLASSIFICATION_TYPE":"U","NORAD_CAT_ID":61054,"ELEMENT_SET_NO":999,"REV_AT_EPOCH":6142,"BSTAR":1.6418e-5,"MEAN_MOTION_DOT":1.401e-5,"MEAN_MOTION_DDOT":0},{"OBJECT_NAME":"STARLINK-11268 [DTC]","OBJECT_ID":"2024-164F","EPOCH":"2025-10-07T21:22:22.268064","MEAN_MOTION":15.69719749,"ECCENTRICITY":6.13e-5,"INCLINATION":53.1586,"RA_OF_ASC_NODE":344.2501,"ARG_OF_PERICENTER":130.6254,"MEAN_ANOMALY":229.4817,"EPHEMERIS_TYPE":0,"CLASSIFICATION_TYPE":"U","NORAD_CAT_ID":61055,"ELEMENT_SET_NO":999,"REV_AT_EPOCH":6142,"BSTAR":2.3165e-5,"MEAN_MOTION_DOT":2.22e-5,"MEAN_MOTION_DDOT":0},{"OBJECT_NAME":"STARLINK-11156 [DTC]","OBJECT_ID":"2024-164G","EPOCH":"2025-10-08T04:53:43.270656","MEAN_MOTION":15.69723086,"ECCENTRICITY":0.00012768,"INCLINATION":53.1562,"RA_OF_ASC_NODE":342.6471,"ARG_OF_PERICENTER":85.9413,"MEAN_ANOMALY":274.1751,"EPHEMERIS_TYPE":0,"CLASSIFICATION_TYPE":"U","NORAD_CAT_ID":61056,"ELEMENT_SET_NO":999,"REV_AT_EPOCH":6147,"BSTAR":9.808816e-6,"MEAN_MOTION_DOT":6.0e-6,"MEAN_MOTION_DDOT":0},{"OBJECT_NAME":"STARLINK-11231 [DTC]","OBJECT_ID":"2024-164H","EPOCH":"2025-10-07T21:08:23.253216","MEAN_MOTION":15.69721481,"ECCENTRICITY":7.63e-5,"INCLINATION":53.1582,"RA_OF_ASC_NODE":344.9189,"ARG_OF_PERICENTER":71.9209,"MEAN_ANOMALY":288.1892,"EPHEMERIS_TYPE":0,"CLASSIFICATION_TYPE":"U","NORAD_CAT_ID":61057,"ELEMENT_SET_NO":999,"REV_AT_EPOCH":6141,"BSTAR":2.5546e-5,"MEAN_MOTION_DOT":2.509e-5,"MEAN_MOTION_DDOT":0},{"OBJECT_NAME":"STARLINK-11299 [DTC]","OBJECT_ID":"2024-164J","EPOCH":"2025-10-08T04:39:44.745696","MEAN_MOTION":15.69722644,"ECCENTRICITY":0.00012711,"INCLINATION":53.1591,"RA_OF_ASC_NODE":343.3176,"ARG_OF_PERICENTER":83.5741,"MEAN_ANOMALY":276.5422,"EPHEMERIS_TYPE":0,"CLASSIFICATION_TYPE":"U","NORAD_CAT_ID":61058,"ELEMENT_SET_NO":999,"REV_AT_EPOCH":6146,"BSTAR":5.642462e-6,"MEAN_MOTION_DOT":9.5e-7,"MEAN_MOTION_DDOT":0},{"OBJECT_NAME":"STARLINK-11154 [DTC]","OBJECT_ID":"2024-164K","EPOCH":"2025-10-08T04:32:40.739424","MEAN_MOTION":15.6971509,"ECCENTRICITY":0.00011598,"INCLINATION":53.1591,"RA_OF_ASC_NODE":343.2836,"ARG_OF_PERICENTER":93.0307,"MEAN_ANOMALY":267.0844,"EPHEMERIS_TYPE":0,"CLASSIFICATION_TYPE":"U","NORAD_CAT_ID":61059,"ELEMENT_SET_NO":999,"REV_AT_EPOCH":6146,"BSTAR":9.222938e-6,"MEAN_MOTION_DOT":5.29e-6,"MEAN_MOTION_DDOT":0},{"OBJECT_NAME":"STARLINK-11297 [DTC]","OBJECT_ID":"2024-164L","EPOCH":"2025-10-07T14:40:27.393024","MEAN_MOTION":15.69718902,"ECCENTRICITY":8.67e-5,"INCLINATION":53.1573,"RA_OF_ASC_NODE":346.0766,"ARG_OF_PERICENTER":84.0138,"MEAN_ANOMALY":276.0979,"EPHEMERIS_TYPE":0,"CLASSIFICATION_TYPE":"U","NORAD_CAT_ID":61060,"ELEMENT_SET_NO":999,"REV_AT_EPOCH":6137,"BSTAR":2.8599e-5,"MEAN_MOTION_DOT":2.879e-5,"MEAN_MOTION_DDOT":0}]
